SXM-9                   
1 62259U 24234A   26202.59946193 -.00000203  00000+0  00000+0 0  9991
2 62259   0.0188 334.3500 0004718 346.9909 108.6516  1.00271223  5911
TJS-12                  
1 62374U 24246A   26202.63308716 -.00000230  00000+0  00000+0 0  9990
2 62374   0.5979 302.8761 0001938 104.1181 266.7569  1.00268059  5904
NUVIEW ALPHA            
1 62455U 24252B   26202.52859437 -.00000214  00000+0  00000+0 0  9998
2 62455   0.0382   9.7873 0001173  86.7965 309.8988  1.00271777  4162
AGILA                   
1 62456U 24252C   26202.57519514 -.00000180  00000+0  00000+0 0  9995
2 62456   0.0382 144.6824 0001477 338.1305 175.7512  1.00271303  5504
NUVIEW BRAVO            
1 62457U 24252D   26202.52859437 -.00000214  00000+0  00000+0 0  9990
2 62457   0.0668 175.0027 0001916 332.7598 258.7140  1.00274952  4137
THURAYA-4               
1 62483U 25001A   26202.26870067  .00000140  00000+0  00000+0 0  9992
2 62483   0.0215  77.5646 0000260  72.3689 290.1415  1.00272460  4515
SHIJIAN-25 (SJ-25)      
1 62485U 25002A   26202.53794919 -.00000352  00000+0  00000+0 0  9992
2 62485   5.1929  60.9454 0050795 176.6777  22.4880  1.00276816  5705
TJS-14                  
1 62804U 25017A   26202.61991536  .00000117  00000+0  00000+0 0  9994
2 62804   0.7067 298.2881 0001830 303.1925 299.4229  1.00270520  5611
SPAINSAT NG I           
1 62852U 25021A   26202.62208204  .00000153  00000+0  00000+0 0  9996
2 62852   0.0185  41.8849 0000260  22.6928 127.7333  1.00270565  4332
QZS-6 (MICHIBIKI-6)     
1 62876U 25023A   26202.66580109 -.00000231  00000+0  00000+0 0  9993
2 62876   0.0157  49.4360 0002017  65.2669 154.8936  1.00274155  5291
ZHONGXING-10R           
1 63075U 25036A   26202.63574701 -.00000350  00000+0  00000+0 0  9999
2 63075   0.0715 248.6068 0004670 258.1776 131.9751  1.00270451  5308
TJS-15                  
1 63157U 25045A   26202.73661697 -.00000263  00000+0  00000+0 0  9995
2 63157   0.3130  85.6771 0003070 296.8697 276.5282  1.00272186  5107
TIANLIAN 2-04           
1 63361U 25062A   26202.64452169 -.00000130  00000+0  00000+0 0  9996
2 63361   4.2878 273.9424 0031312   9.2298 328.2917  1.00272761  4946
TJS-16                  
1 63397U 25064A   26202.74639013 -.00000104  00000+0  00000+0 0  9994
2 63397   1.1850  81.2493 0002428 297.8973 349.6618  1.00271605  4736
TJS-17                  
1 63524U 25073A   26202.68321575 -.00000069  00000+0  00000+0 0  9990
2 63524   1.1509  82.4052 0001021 321.4084 306.0738  1.00271847  4635
TIANLIAN 2-05           
1 63662U 25084A   26202.26393398  .00000129  00000+0  00000+0 0  9997
2 63662   4.3663 279.4458 0002766 159.4311 335.5394  1.00273782  4726
TJS-19                  
1 63924U 25097A   26202.71560580 -.00000271  00000+0  00000+0 0  9990
2 63924   3.2295 318.0146 0004156 249.2951 131.0163  1.00274270  4493
CHINASAT 3B             
1 64062U 25106A   26202.61086500 -.00000044  00000+0  00000+0 0  9997
2 64062   0.0320 184.3415 0004391 323.7827 178.4547  1.00269982  4401
SXM-10                  
1 64290U 25122A   26202.59330856 -.00000015  00000+0  00000+0 0  9999
2 64290   0.0160  42.3242 0001760 327.6817  26.7610  1.00270525  4025
COSMOS 2589             
1 64467U 25131A   26202.70688475 -.00000293  00000+0  00000+0 0  9999
2 64467   0.0279 116.6342 0000925 310.3819 224.9218  1.00295532  3908
CHINASAT 9C             
1 64470U 25132A   26202.63623003 -.00000246  00000+0  00000+0 0  9990
2 64470   0.0148 104.8636 0003570  11.0518 144.7227  1.00272939  4492
MTG-S1                  
1 64723U 25143A   26202.61627535 -.00000005  00000+0  00000+0 0  9998
2 64723   0.5813 346.5712 0003196 256.9285 277.3930  1.00275561  3769
DROR 1                  
1 64784U 25148A   26202.40163667 -.00000033  00000+0  00000+0 0  9999
2 64784   0.0229 296.6564 0001918 111.6569  31.4313  1.00270746  3634
SHIYAN-29               
1 65486U 25196A   26201.94955711 -.00000284  00000+0  00000+0 0  9997
2 65486  28.8575  18.1095 0013157 176.7973 180.9937  1.00275454  3218
NUSANTARA LIMA (NUSANT*)
1 65588U 25205A   26202.28222073 -.00000357  00000+0  00000+0 0  9998
2 65588   0.0119 125.6501 0000264  49.0695 338.7732  1.00270697  3064
TJS-20                  
1 66142U 25238A   26202.41481006  .00000031  00000+0  00000+0 0  9997
2 66142   5.3936 299.4184 0003938 188.3974  23.1109  1.00269061  2673
CMS-03 (GSAT-7R)        
1 66311U 25249B   26202.63097127  .00000000  00000+0  00000+0 0  9994
2 66311   0.0218  62.7611 0002549  55.8100 121.9620  1.00270409  2693
VIASAT-3 F2             
1 66454U 25261A   26202.60067528 -.00000232  00000+0  00000+0 0  9993
2 66454   0.0217 263.0029 0000427 325.2449 208.3875  1.00268985  3130
SHIJIAN-28 (SJ-28)      
1 66549U 25277A   26202.63947373 -.00000354  00000+0  00000+0 0  9998
2 66549   4.4507 271.5834 0001107  57.6471 317.2133  1.00273955  2500
TJS-22                  
1 66990U 25290A   26201.78503698 -.00000006  00000+0  00000+0 0  9990
2 66990   1.4494 287.0423 0002925 317.7575  42.8263  1.00271111  2363
TJS-23                  
1 67226U 25306A   26202.50741751  .00000022  00000+0  00000+0 0  9993
2 67226   5.5116 297.3069 0004421 201.9123 158.2413  1.00268829  2235
FENGYUN 4C              
1 67246U 25312A   26194.65865777 -.00000328  00000+0  00000+0 0  9993
2 67246   0.0385 175.3203 0000658  48.7481  77.5697  1.00269440  2048
SHIJIAN-29A (SJ-29A)    
1 67302U 25315A   26202.70357487 -.00000068  00000+0  00000+0 0  9990
2 67302   3.4834  94.2828 0005320  54.0380 117.6234  1.00273197  1965
SHIJIAN-29B (SJ-29B)    
1 67403U 25315C   26202.70337332 -.00000069  00000+0  00000+0 0  9990
2 67403   3.4824  94.2738 0005379  55.4203 116.2209  1.00273432  2037
ELEKTRO-L 5             
1 67756U 26028A   26201.95882553 -.00000098  00000+0  00000+0 0  9991
2 67756   0.2005 328.1030 0002079 176.3186 215.5781  1.00271794  1581
JAM-E JAM 1             
1 67757U 26028B   26202.62286204  .00000158  00000+0  00000+0 0  9994
2 67757   0.1952 316.2251 0000697 250.0033 351.3448  1.00267795  1462
ECHOSTAR 25             
1 68126U 26045A   26202.25044965 -.00000056  00000+0  00000+0 0  9997
2 68126   0.0183  56.4695 0001701  55.5531 167.1390  1.00271654  1335
TJS-24                  
1 69235U 26116A   26202.74807759 -.00000230  00000+0  00000+0 0  9994
2 69235   0.0933  93.9124 0000221 132.5109  72.6952  1.00273442   572
